ONEWEB-0589             
1 54655U 22166P   25131.77858690  .00000057  00000+0  10651-3 0  9991
2 54655  87.9247 324.0462 0002403  70.4715 289.6678 13.21826152118511
ONEWEB-0590             
1 54656U 22166Q   25132.02917280 -.00000353  00000+0 -88739-3 0  9995
2 54656  87.9232 323.9820 0002235  95.6033 264.5356 13.21825934118991
ONEWEB-0591             
1 54657U 22166R   25131.81485659  .00000012  00000+0 -22426-5 0  9996
2 54657  87.9247 324.0394 0001939  85.9527 274.1829 13.21826633118535
ONEWEB-0592             
1 54658U 22166S   25131.81800967 -.00000040  00000+0 -12760-3 0  9990
2 54658  87.9243 323.9923 0001998  86.9677 273.1686 13.21826381118417
ONEWEB-0593             
1 54659U 22166T   25131.76597015  .00000040  00000+0  65537-4 0  9991
2 54659  87.9247 324.0402 0001941  83.8114 276.3241 13.21827133118515
ONEWEB-0594             
1 54660U 22166U   25131.78488581  .00000123  00000+0  26648-3 0  9993
2 54660  87.9251 324.0478 0001743  88.5554 271.5780 13.21827435118537
ONEWEB-0595             
1 54661U 22166V   25132.06559848 -.00000073  00000+0 -20813-3 0  9995
2 54661  87.9248 323.9711 0001828  95.3652 264.7691 13.21826312119013
ONEWEB-0596             
1 54662U 22166W   25131.81169663  .00000058  00000+0  10936-3 0  9996
2 54662  87.9250 324.0333 0001885  90.7572 269.3778 13.21826245118518
